{
  "type": "FeatureCollection",
  "features": [
    {
      "type": "Feature",
      "properties": {
        "norad_id": 66909,
        "name": "SILVERSAT",
        "group": "stations",
        "lat": -50.09201666537534,
        "lon": 55.51376610925011,
        "alt_km": 413.0980810316705,
        "timestamp": "2025-12-15T20:48:52.637934+00:00",
        "meta_object_name": "SILVERSAT",
        "meta_object_id": "1998-067XV",
        "meta_epoch": "2025-12-14T21:58:11.659008",
        "meta_mean_motion": 15.51959159,
        "meta_eccentricity": 0.00041685,
        "meta_inclination": 51.6297,
        "meta_ra_of_asc_node": 131.568,
        "meta_arg_of_pericenter": 239.8452,
        "meta_mean_anomaly": 120.2125,
        "meta_ephemeris_type": 0,
        "meta_classification_type": "U",
        "meta_norad_cat_id": 66909,
        "meta_element_set_no": 999,
        "meta_rev_at_epoch": 195,
        "meta_bstar": 0.00078463431,
        "meta_mean_motion_dot": 0.00047853,
        "meta_mean_motion_ddot": 0,
        "tle_line1": "1 66909U 98067XV  25348.91541272  .00047853  00000+0  78463-3 0  9990",
        "tle_line2": "2 66909  51.6297 131.5680 0004168 239.8452 120.2125 15.51959159  1956"
      },
      "geometry": {
        "type": "Point",
        "coordinates": [
          55.51376610925011,
          -50.09201666537534
        ]
      }
    },
    {
      "type": "Feature",
      "properties": {
        "norad_id": 66910,
        "name": "1998-067XW",
        "group": "stations",
        "lat": -46.89584780220633,
        "lon": 68.97561936649423,
        "alt_km": 413.7498755939305,
        "timestamp": "2025-12-15T20:48:52.637943+00:00",
        "meta_object_name": "1998-067XW",
        "meta_object_id": "1998-067XW",
        "meta_epoch": "2025-12-14T23:28:33.119904",
        "meta_mean_motion": 15.52053849,
        "meta_eccentricity": 0.00048717,
        "meta_inclination": 51.6296,
        "meta_ra_of_asc_node": 131.2373,
        "meta_arg_of_pericenter": 219.7417,
        "meta_mean_anomaly": 140.3216,
        "meta_ephemeris_type": 0,
        "meta_classification_type": "U",
        "meta_norad_cat_id": 66910,
        "meta_element_set_no": 999,
        "meta_rev_at_epoch": 196,
        "meta_bstar": 0.00071781086,
        "meta_mean_motion_dot": 0.0004387,
        "meta_mean_motion_ddot": 0,
        "tle_line1": "1 66910U 98067XW  25348.97816111  .00043870  00000+0  71781-3 0  9996",
        "tle_line2": "2 66910  51.6296 131.2373 0004871 219.7417 140.3216 15.52053849  1969"
      },
      "geometry": {
        "type": "Point",
        "coordinates": [
          68.97561936649423,
          -46.89584780220633
        ]
      }
    },
    {
      "type": "Feature",
      "properties": {
        "norad_id": 66911,
        "name": "1998-067XX",
        "group": "stations",
        "lat": -43.448787824286995,
        "lon": 78.1622232647408,
        "alt_km": 412.9418395256034,
        "timestamp": "2025-12-15T20:48:52.637953+00:00",
        "meta_object_name": "1998-067XX",
        "meta_object_id": "1998-067XX",
        "meta_epoch": "2025-12-14T18:48:49.806720",
        "meta_mean_motion": 15.52344469,
        "meta_eccentricity": 0.00045838,
        "meta_inclination": 51.6294,
        "meta_ra_of_asc_node": 132.1898,
        "meta_arg_of_pericenter": 221.2762,
        "meta_mean_anomaly": 138.7882,
        "meta_ephemeris_type": 0,
        "meta_classification_type": "U",
        "meta_norad_cat_id": 66911,
        "meta_element_set_no": 999,
        "meta_rev_at_epoch": 192,
        "meta_bstar": 0.0010081663,
        "meta_mean_motion_dot": 0.00062604,
        "meta_mean_motion_ddot": 0,
        "tle_line1": "1 66911U 98067XX  25348.78390980  .00062604  00000+0  10082-2 0  9999",
        "tle_line2": "2 66911  51.6294 132.1898 0004583 221.2762 138.7882 15.52344469  1928"
      },
      "geometry": {
        "type": "Point",
        "coordinates": [
          78.1622232647408,
          -43.448787824286995
        ]
      }
    },
    {
      "type": "Feature",
      "properties": {
        "norad_id": 66912,
        "name": "1998-067XY",
        "group": "stations",
        "lat": -51.4618428657654,
        "lon": 30.965560275505805,
        "alt_km": 414.4616198661424,
        "timestamp": "2025-12-15T20:48:52.637963+00:00",
        "meta_object_name": "1998-067XY",
        "meta_object_id": "1998-067XY",
        "meta_epoch": "2025-12-14T18:56:09.789216",
        "meta_mean_motion": 15.51365838,
        "meta_eccentricity": 0.00043478,
        "meta_inclination": 51.6301,
        "meta_ra_of_asc_node": 132.2238,
        "meta_arg_of_pericenter": 234.7392,
        "meta_mean_anomaly": 125.3191,
        "meta_ephemeris_type": 0,
        "meta_classification_type": "U",
        "meta_norad_cat_id": 66912,
        "meta_element_set_no": 999,
        "meta_rev_at_epoch": 192,
        "meta_bstar": 0.00071977927,
        "meta_mean_motion_dot": 0.00042904,
        "meta_mean_motion_ddot": 0,
        "tle_line1": "1 66912U 98067XY  25348.78900219  .00042904  00000+0  71978-3 0  9995",
        "tle_line2": "2 66912  51.6301 132.2238 0004347 234.7392 125.3191 15.51365838  1920"
      },
      "geometry": {
        "type": "Point",
        "coordinates": [
          30.965560275505805,
          -51.4618428657654
        ]
      }
    }
  ]
}